[{"OBJECT_NAME":"SCISAT 1","OBJECT_ID":"2003-036A","EPOCH":"2026-03-09T22:52:31.276992","MEAN_MOTION":14.8131333,"ECCENTRICITY":0.00057868,"INCLINATION":73.9323,"RA_OF_ASC_NODE":8.49,"ARG_OF_PERICENTER":97.7053,"MEAN_ANOMALY":262.4781,"EPHEMERIS_TYPE":0,"CLASSIFICATION_TYPE":"U","NORAD_CAT_ID":27858,"ELEMENT_SET_NO":999,"REV_AT_EPOCH":21675,"BSTAR":0.00015871313,"MEAN_MOTION_DOT":1.203e-5,"MEAN_MOTION_DDOT":0},{"OBJECT_NAME":"UNKNOWN","OBJECT_ID":"","EPOCH":"2026-03-09T00:57:10.614816","MEAN_MOTION":14.37645313,"ECCENTRICITY":0.0206434,"INCLINATION":98.0223,"RA_OF_ASC_NODE":161.7978,"ARG_OF_PERICENTER":227.1377,"MEAN_ANOMALY":131.2313,"EPHEMERIS_TYPE":0,"CLASSIFICATION_TYPE":"U","NORAD_CAT_ID":85217,"ELEMENT_SET_NO":999,"REV_AT_EPOCH":64025,"BSTAR":0.0010494,"MEAN_MOTION_DOT":3.986e-5,"MEAN_MOTION_DDOT":0}]
